ISS (ZARYA)             
1 25544U 98067A   26180.50883825  .00005660  00000+0  10902-3 0  9997
2 25544  51.6320 239.0980 0004278 246.9974 113.0563 15.49477794573665
OSCAR 7 (AO-7)          
1 07530U 74089B   26180.53206089 -.00000029  00000+0  10680-3 0  9992
2 07530 101.9899 193.9073 0012648 107.2308  46.3733 12.53698335362066
PHASE 3B (AO-10)        
1 14129U 83058B   26177.59526761 -.00000217  00000+0  00000+0 0  9994
2 14129  25.9202 218.0092 6007622 118.2548 314.1516  2.05872938295688
UOSAT 2 (UO-11)         
1 14781U 84021B   26180.43715073  .00001390  00000+0  14690-3 0  9998
2 14781  97.8064 145.8753 0008638 135.0292 225.1627 14.90813583258953
LUSAT (LO-19)           
1 20442U 90005G   26180.53101484  .00000119  00000+0  59153-4 0  9996
2 20442  98.8846 202.6766 0011831 164.7083 195.4460 14.34126752904163
EYESAT A (AO-27)        
1 22825U 93061C   26179.74707028  .00000085  00000+0  49173-4 0  9998
2 22825  98.6877 247.1562 0009444  69.9517 290.2682 14.30945093708654
ITAMSAT (IO-26)         
1 22826U 93061D   26180.14245012  .00000100  00000+0  54631-4 0  9998
2 22826  98.6824 247.4702 0009786  53.6925 306.5160 14.31372508709028
RADIO ROSTO (RS15)      
1 23439U 94085A   26180.53245385 -.00000040  00000+0  67372-4 0  9992
2 23439  64.8182 283.2510 0156358   1.5926 358.5467 11.27583380297299
JAS-2 (FO-29)           
1 24278U 96046B   26180.51017588 -.00000022  00000+0  11279-4 0  9998
2 24278  98.5228  27.6935 0350854  64.5491 299.1516 13.53274874474838
TECHSAT 1B (GO-32)      
1 25397U 98043D   26180.49739138  .00000059  00000+0  45590-4 0  9991
2 25397  99.0072 173.5667 0001674 140.3327 219.7973 14.24430746453081
PCSAT (NO-44)           
1 26931U 01043C   26180.52193181  .00000103  00000+0  69403-4 0  9995
2 26931  67.0491 212.3686 0006034 265.4141  94.6272 14.31959949292214
SAUDISAT 1C (SO-50)     
1 27607U 02058C   26180.36045259  .00000938  00000+0  12784-3 0  9992
2 27607  64.5520  91.3218 0074978 260.2054  99.0580 14.83071475266267
CUTE-1 (CO-55)          
1 27844U 03031E   26180.54129514  .00000288  00000+0  14333-3 0  9994
2 27844  98.6736 188.9448 0010276 143.6192 216.5687 14.24343053193434
CUBESAT XI-IV (CO-57)   
1 27848U 03031J   26179.55199356  .00000229  00000+0  11941-3 0  9995
2 27848  98.6768 187.6716 0009707 163.9321 196.2167 14.23626546192990
MOZHAETS 4 (RS22)       
1 27939U 03042A   26180.56753682  .00001135  00000+0  18288-3 0  9997
2 27939  98.3466   5.2762 0010175 225.3312 176.2045 14.73489575217370
CUBESAT XI-V            
1 28895U 05043F   26180.36105506  .00001505  00000+0  24408-3 0  9998
2 28895  98.2996 336.2392 0014485 162.3137 197.8576 14.72664004103540
CUTE-1.7+APD II (CO-65) 
1 32785U 08021C   26180.51211142  .00004959  00000+0  31281-3 0  9994
2 32785  97.8273 162.1877 0008501 358.9608   1.1601 15.09565074987058
SEEDS II (CO-66)        
1 32791U 08021J   26180.53796132  .00017135  00000+0  53678-3 0  9994
2 32791  97.7514 179.0284 0001003 198.0184 162.1022 15.33164845989182
YUBILEINY (RS30)        
1 32953U 08025A   26180.49208274  .00000069  00000+0  42611-3 0  9991
2 32953  82.5041 347.7845 0018521 285.4699  74.4335 12.43180346821225
KKS-1 (KISEKI)          
1 33499U 09002H   26180.46786598  .00001311  00000+0  16754-3 0  9990
2 33499  98.1185 103.1047 0006435 247.0886 112.9648 14.83154054938018
SWISSCUBE               
1 35932U 09051B   26180.27846234  .00001009  00000+0  20867-3 0  9995
2 35932  98.4027  88.3771 0006839 163.8418 196.3002 14.62503730890925
BEESAT-1                
1 35933U 09051C   26179.67813002  .00000785  00000+0  16739-3 0  9998
2 35933  98.3955  87.3776 0004989 176.9996 183.1235 14.61737811890862
ITUPSAT1                
1 35935U 09051E   26179.54206212  .00000711  00000+0  15671-3 0  9998
2 35935  98.4040  86.4193 0006875 194.0038 166.0972 14.60456331890397
XIWANG-1 (HOPE-1)       
1 36122U 09072B   26180.47974112 -.00000257  00000+0 -55748-3 0  9991
2 36122 100.4025 134.1160 0007117 201.5015 158.5800 13.16438049794628
O/OREOS (USA 219)       
1 37224U 10062C   26179.71476083  .00002058  00000+0  19961-3 0  9991
2 37224  71.9712  54.2272 0013001  38.4186 321.7908 14.93790940118369
JUGNU                   
1 37839U 11058B   26180.52221220  .00000404  00000+0  71335-4 0  9998
2 37839  19.9594 233.4895 0018389 212.2255 288.6400 14.13779747760776
SRMSAT                  
1 37841U 11058D   26180.51626359  .00000380  00000+0  62534-4 0  9996
2 37841  19.9735 344.8461 0011761 340.0688  58.9057 14.11578051759563
STRAND-1                
1 39090U 13009E   26180.44866124  .00000299  00000+0  11477-3 0  9998
2 39090  98.3924   0.3813 0008423 186.2381 173.8702 14.37170518698827
ZACUBE-1 (TSHEPISOSAT)  
1 39417U 13066B   26179.93847879  .00002723  00000+0  21285-3 0  9994
2 39417  97.8045 142.3355 0042448 207.8298 152.0656 15.01250622682498
GOMX-1                  
1 39430U 13066Q   26180.51063360  .00001663  00000+0  25409-3 0  9994
2 39430  97.6476  20.1957 0129591  38.4087 322.6258 14.69500920671728
